GLOBALSTAR M084         
1 38040U 11080A   25334.82716265 -.00000091  00000+0  73458-4 0  9990
2 38040  52.0012 261.1624 0000999  52.5519 342.1580 12.62265964643710
GLOBALSTAR M080         
1 38041U 11080B   25334.79668178 -.00000090  00000+0  76889-4 0  9996
2 38041  52.0065 262.9044 0000621  99.2671 286.8343 12.62271659643835
GLOBALSTAR M082         
1 38042U 11080C   25334.73504639 -.00000082  00000+0  11879-3 0  9990
2 38042  52.0065 218.5727 0000802  92.2720 303.2794 12.62265569644535
GLOBALSTAR M092         
1 38043U 11080D   25334.86060669 -.00000099  00000+0  25580-4 0  9998
2 38043  52.0105 308.5756 0000452  56.8311 309.0650 12.62267814643007
GLOBALSTAR M090         
1 38044U 11080E   25334.39563549 -.00000082  00000+0  12246-3 0  9998
2 38044  52.0108 213.4979 0000796  72.0664  99.3669 12.62264816644609
GLOBALSTAR M086         
1 38045U 11080F   25334.09853905 -.00000078  00000+0  14522-3 0  9998
2 38045  51.9883 214.6558 0001132  12.0223 137.5734 12.62280491644519
GLOBALSTAR M097         
1 39072U 13005A   25334.80626992 -.00000091  00000+0  68962-4 0  9994
2 39072  52.0025 127.2235 0000774 100.8084 259.2870 12.62267816591850
GLOBALSTAR M093         
1 39073U 13005B   25334.78021050 -.00000093  00000+0  60429-4 0  9998
2 39073  52.0087 120.5750 0000582 113.8019 246.2909 12.62270840591801
